[{"OBJECT_NAME":"STARLINK-5317","OBJECT_ID":"2023-010Q","EPOCH":"2026-03-09T22:25:22.359648","MEAN_MOTION":14.98332531,"ECCENTRICITY":0.00032076,"INCLINATION":70.0002,"RA_OF_ASC_NODE":43.7962,"ARG_OF_PERICENTER":268.2571,"MEAN_ANOMALY":91.822,"EPHEMERIS_TYPE":0,"CLASSIFICATION_TYPE":"U","NORAD_CAT_ID":55283,"ELEMENT_SET_NO":999,"REV_AT_EPOCH":17281,"BSTAR":3.48302e-6,"MEAN_MOTION_DOT":-5.1e-7,"MEAN_MOTION_DDOT":0},{"OBJECT_NAME":"HAWK-8A","OBJECT_ID":"2024-066B","EPOCH":"2026-03-09T09:46:26.156352","MEAN_MOTION":14.98766556,"ECCENTRICITY":0.00042143,"INCLINATION":45.5937,"RA_OF_ASC_NODE":72.3645,"ARG_OF_PERICENTER":254.4969,"MEAN_ANOMALY":105.5447,"EPHEMERIS_TYPE":0,"CLASSIFICATION_TYPE":"U","NORAD_CAT_ID":59443,"ELEMENT_SET_NO":999,"REV_AT_EPOCH":10486,"BSTAR":0.0002089936,"MEAN_MOTION_DOT":2.325e-5,"MEAN_MOTION_DDOT":0}]
